NORAD_CAT_ID,OBJECT_NAME,OBJECT_TYPE,EPOCH,MEAN_MOTION,ECCENTRICITY,INCLINATION,RA_OF_ASC_NODE,ARG_OF_PERICENTER,MEAN_ANOMALY,BSTAR,MEAN_MOTION_DOT,MEAN_MOTION_DDOT,TLE_LINE0,TLE_LINE1,TLE_LINE2,SEMIMAJOR_AXIS,PERIOD,APOGEE,PERIGEE,DECAYED
56778.0,STARLINK-6304,PAYLOAD,2023-10-05 20:46:09,15.69936917,0.0003248,69.9975,54.5777,270.5637,89.5187,-7.1691e-06,-1.075e-05,0.0,0 STARLINK-6304,1 56778U 23078M   23278.86538761 -.00001075  00000-0 -71691-5 0  9993,2 56778  69.9975  54.5777 0003248 270.5637  89.5187 15.69936917 20075,6737.214,91.723,361.268,356.891,0.0
56778.0,STARLINK-6304,PAYLOAD,2023-10-06 10:31:56,15.69924145,0.0002483,70.0005,52.9649,266.9953,93.0959,-3.5453e-06,-6.38e-06,0.0,0 STARLINK-6304,1 56778U 23078M   23279.43884888 -.00000638  00000-0 -35453-5 0  9991,2 56778  70.0005  52.9649 0002483 266.9953  93.0959 15.69924145 20428,6737.251,91.724,360.789,357.443,0.0
56778.0,STARLINK-6304,PAYLOAD,2023-10-06 12:03:41,15.69924349,0.0002596,69.9994,52.7851,269.6542,90.4357,-2.0229e-06,-4.55e-06,0.0,0 STARLINK-6304,1 56778U 23078M   23279.50256492 -.00000455  00000-0 -20229-5 0  9995,2 56778  69.9994  52.7851 0002596 269.6542  90.4357 15.69924349 20175,6737.25,91.724,360.864,357.366,0.0
56778.0,STARLINK-6304,PAYLOAD,2023-10-06 18:10:41,15.69932832,0.0002329,69.9992,52.0689,266.4485,93.6444,-8.3903e-07,-3.13e-06,0.0,0 STARLINK-6304,1 56778U 23078M   23279.75742611 -.00000313  00000-0 -83903-6 0  9997,2 56778  69.9992  52.0689 0002329 266.4485  93.6444 15.69932832 20471,6737.226,91.724,360.66,357.522,0.0
56778.0,STARLINK-6304,PAYLOAD,2023-10-06 21:14:12,15.69923319,0.0002724,69.9985,51.7095,271.1242,88.9642,3.0649e-05,3.474e-05,0.0,0 STARLINK-6304,1 56778U 23078M   23279.88486265  .00003474  00000-0  30649-4 0  9997,2 56778  69.9985  51.7095 0002724 271.1242  88.9642 15.69923319 20234,6737.253,91.724,360.954,357.283,0.0
56778.0,STARLINK-6304,PAYLOAD,2023-10-07 10:59:58,15.69921938,0.0003209,69.9989,50.0978,275.8617,84.2212,8.2635e-06,7.81e-06,0.0,0 STARLINK-6304,1 56778U 23078M   23280.45831472  .00000781  00000-0  82635-5 0  9997,2 56778  69.9989  50.0978 0003209 275.8617  84.2212 15.69921938 20581,6737.257,91.724,361.284,356.96,0.0
56778.0,STARLINK-6304,PAYLOAD,2023-10-07 12:31:43,15.69922127,0.0003164,69.9974,49.9187,275.8373,84.2461,1.1173e-05,1.131e-05,0.0,0 STARLINK-6304,1 56778U 23078M   23280.52203268  .00001131  00000-0  11173-4 0  9999,2 56778  69.9974  49.9187 0003164 275.8373  84.2461 15.69922127 20333,6737.257,91.724,361.253,356.99,0.0
56778.0,STARLINK-6304,PAYLOAD,2023-10-07 20:10:28,15.6992825,0.0003387,69.9985,49.0226,269.913,90.1677,2.1721e-05,2.4e-05,0.0,0 STARLINK-6304,1 56778U 23078M   23280.84061071  .00002400  00000-0  21721-4 0  9998,2 56778  69.9985  49.0226 0003387 269.9130  90.1677 15.69928250 20385,6737.239,91.724,361.386,356.822,0.0
56778.0,STARLINK-6304,PAYLOAD,2023-10-08 14:31:30,15.69932769,0.0003465,69.9979,46.8725,270.0337,90.0462,1.1775e-05,1.204e-05,0.0,0 STARLINK-6304,1 56778U 23078M   23281.60521017  .00001204  00000-0  11775-4 0  9993,2 56778  69.9979  46.8725 0003465 270.0337  90.0462 15.69932769 20501,6737.226,91.724,361.426,356.757,0.0
56778.0,STARLINK-6304,PAYLOAD,2023-10-08 17:35:00,15.69934713,0.0003315,69.9997,46.5149,272.2226,87.859,1.7491e-05,1.892e-05,0.0,0 STARLINK-6304,1 56778U 23078M   23281.73264204  .00001892  00000-0  17491-4 0  9993,2 56778  69.9997  46.5149 0003315 272.2226  87.8590 15.69934713 20780,6737.221,91.724,361.319,356.852,0.0
56778.0,STARLINK-6304,PAYLOAD,2023-10-08 20:38:30,15.69924088,0.0003253,69.9998,46.1557,275.6962,84.3863,-2.2062e-06,-4.78e-06,0.0,0 STARLINK-6304,1 56778U 23078M   23281.86008058 -.00000478  00000-0 -22062-5 0  9992,2 56778  69.9998  46.1557 0003253 275.6962  84.3863 15.69924088 20807,6737.251,91.724,361.308,356.925,0.0
56778.0,STARLINK-6304,PAYLOAD,2023-10-09 11:56:02,15.69920505,0.0002981,70.0004,44.3645,284.3793,75.7071,9.6333e-06,9.46e-06,0.0,0 STARLINK-6304,1 56778U 23078M   23282.49725217  .00000946  00000-0  96333-5 0  9995,2 56778  70.0004  44.3645 0002981 284.3793  75.7071 15.69920505 20649,6737.261,91.724,361.135,357.118,0.0
56778.0,STARLINK-6304,PAYLOAD,2023-10-09 18:03:03,15.69922555,0.000264,70.0024,43.6481,273.0778,87.0115,2.4177e-05,2.695e-05,0.0,0 STARLINK-6304,1 56778U 23078M   23282.75211839  .00002695  00000-0  24177-4 0  9993,2 56778  70.0024  43.6481 0002640 273.0778  87.0115 15.69922555 20687,6737.256,91.724,360.899,357.342,0.0
56778.0,STARLINK-6304,PAYLOAD,2023-10-09 21:06:32,15.69946505,0.0003386,70.0007,43.289,273.8706,86.2103,6.8773e-05,8.072e-05,0.0,0 STARLINK-6304,1 56778U 23078M   23282.87953771  .00008072  00000-0  68773-4 0  9999,2 56778  70.0007  43.2890 0003386 273.8706  86.2103 15.69946505 20965,6737.187,91.723,361.333,356.771,0.0
56778.0,STARLINK-6304,PAYLOAD,2023-10-10 10:52:19,15.69921159,0.0003377,69.9992,41.6767,268.2187,91.8622,-6.1534e-06,-9.52e-06,0.0,0 STARLINK-6304,1 56778U 23078M   23283.45300050 -.00000952  00000-0 -61534-5 0  9990,2 56778  69.9992  41.6767 0003377 268.2187  91.8622 15.69921159 21058,6737.26,91.724,361.4,356.849,0.0
56778.0,STARLINK-6304,PAYLOAD,2023-10-10 20:02:49,15.69938479,0.0003532,70.0003,40.6035,273.3416,86.7376,3.3839e-05,3.86e-05,0.0,0 STARLINK-6304,1 56778U 23078M   23283.83529340  .00003860  00000-0  33839-4 0  9992,2 56778  70.0003  40.6035 0003532 273.3416  86.7376 15.69938479 20855,6737.21,91.723,361.455,356.695,0.0
56778.0,STARLINK-6304,PAYLOAD,2023-10-11 09:48:36,15.69925629,0.0002969,70.0003,38.9907,264.4516,95.6341,1.2093e-05,1.242e-05,0.0,0 STARLINK-6304,1 56778U 23078M   23284.40875119  .00001242  00000-0  12093-4 0  9995,2 56778  70.0003  38.9907 0002969 264.4516  95.6341 15.69925629 21202,6737.247,91.724,361.112,357.111,0.0
56778.0,STARLINK-6304,PAYLOAD,2023-10-11 14:23:51,15.69925369,0.0002977,70.0001,38.4531,263.3444,96.7412,1.116e-05,1.13e-05,0.0,0 STARLINK-6304,1 56778U 23078M   23284.59990129  .00001130  00000-0  11160-4 0  9994,2 56778  70.0001  38.4531 0002977 263.3444  96.7412 15.69925369 20970,6737.248,91.724,361.118,357.107,0.0
56778.0,STARLINK-6304,PAYLOAD,2023-10-12 10:16:38,15.69919922,0.0003162,69.9991,36.1237,268.2362,91.8471,2.2414e-05,2.483e-05,0.0,0 STARLINK-6304,1 56778U 23078M   23285.42822186  .00002483  00000-0  22414-4 0  9990,2 56778  69.9991  36.1237 0003162 268.2362  91.8471 15.69919922 21366,6737.263,91.724,361.258,356.998,0.0
56778.0,STARLINK-6304,PAYLOAD,2023-10-12 19:27:08,15.69928751,0.0002912,69.9995,35.049,265.5257,94.5606,2.3672e-05,2.635e-05,0.0,0 STARLINK-6304,1 56778U 23078M   23285.81051773  .00002635  00000-0  23672-4 0  9995,2 56778  69.9995  35.0490 0002912 265.5257  94.5606 15.69928751 21162,6737.238,91.724,361.065,357.141,0.0
56778.0,STARLINK-6304,PAYLOAD,2023-10-13 10:44:40,15.69923962,0.0003177,69.9983,33.2579,272.4307,87.6525,1.1198e-05,1.134e-05,0.0,0 STARLINK-6304,1 56778U 23078M   23286.44768885  .00001134  00000-0  11198-4 0  9997,2 56778  69.9983  33.2579 0003177 272.4307  87.6525 15.69923962 21526,6737.252,91.724,361.257,356.976,0.0
56778.0,STARLINK-6304,PAYLOAD,2023-10-13 16:51:40,15.69924704,0.0003,70.0005,32.5415,272.7109,87.3744,8.7595e-06,8.41e-06,0.0,0 STARLINK-6304,1 56778U 23078M   23286.70255372  .00000841  00000-0  87595-5 0  9997,2 56778  70.0005  32.5415 0003000 272.7109  87.3744 15.69924704 21304,6737.249,91.724,361.136,357.093,0.0
56778.0,STARLINK-6304,PAYLOAD,2023-10-14 09:40:57,15.69923333,0.0003026,70.0005,30.5724,263.5412,96.5439,6.7046e-06,5.94e-06,0.0,0 STARLINK-6304,1 56778U 23078M   23287.40343822  .00000594  00000-0  67046-5 0  9997,2 56778  70.0005  30.5724 0003026 263.5412  96.5439 15.69923333 21410,6737.253,91.724,361.157,357.08,0.0
56778.0,STARLINK-6304,PAYLOAD,2023-10-14 15:47:58,15.6990971,0.0003355,69.9987,29.8554,270.8792,89.2019,-2.8965e-06,-5.61e-06,0.0,0 STARLINK-6304,1 56778U 23078M   23287.65831926 -.00000561  00000-0 -28965-5 0  9994,2 56778  69.9987  29.8554 0003355 270.8792  89.2019 15.69909710 21455,6737.292,91.725,361.418,356.897,0.0
56778.0,STARLINK-6304,PAYLOAD,2023-10-15 10:08:58,15.69929554,0.0003161,69.9986,27.7063,262.5388,97.5449,1.8909e-05,2.062e-05,0.0,0 STARLINK-6304,1 56778U 23078M   23288.42290354  .00002062  00000-0  18909-4 0  9996,2 56778  69.9986  27.7063 0003161 262.5388  97.5449 15.69929554 21839,6737.236,91.724,361.23,356.971,0.0
56778.0,STARLINK-6304,PAYLOAD,2023-10-15 13:12:29,15.69927022,0.0003192,69.9987,27.3473,267.2447,92.8384,1.4875e-05,1.576e-05,0.0,0 STARLINK-6304,1 56778U 23078M   23288.55033927  .00001576  00000-0  14875-4 0  9998,2 56778  69.9987  27.3473 0003192 267.2447  92.8384 15.69927022 21590,6737.243,91.724,361.258,356.957,0.0
56778.0,STARLINK-6304,PAYLOAD,2023-10-15 16:15:59,15.69927554,0.0003227,69.9983,26.9884,268.9386,91.144,1.363e-05,1.427e-05,0.0,0 STARLINK-6304,1 56778U 23078M   23288.67777211  .00001427  00000-0  13630-4 0  9995,2 56778  69.9983  26.9884 0003227 268.9386  91.1440 15.69927554 21614,6737.241,91.724,361.28,356.932,0.0
56778.0,STARLINK-6304,PAYLOAD,2023-10-15 23:54:45,15.69922633,0.0003389,69.9986,26.091,269.8314,90.2493,1.0876e-05,1.095e-05,0.0,0 STARLINK-6304,1 56778U 23078M   23288.99635833  .00001095  00000-0  10876-4 0  9993,2 56778  69.9986  26.0910 0003389 269.8314  90.2493 15.69922633 21923,6737.255,91.724,361.404,356.837,0.0
56778.0,STARLINK-6304,PAYLOAD,2023-10-16 09:05:16,15.69917676,0.0003248,69.9983,25.0169,268.2999,91.7825,2.2203e-05,2.457e-05,0.0,0 STARLINK-6304,1 56778U 23078M   23289.37865923  .00002457  00000-0  22203-4 0  9991,2 56778  69.9983  25.0169 0003248 268.2999  91.7825 15.69917676 21725,6737.27,91.725,361.323,356.946,0.0
56778.0,STARLINK-6304,PAYLOAD,2023-10-16 16:44:02,15.69916131,0.0003014,69.9987,24.1208,263.2133,96.872,1.6143e-05,1.728e-05,0.0,0 STARLINK-6304,1 56778U 23078M   23289.69724609  .00001728  00000-0  16143-4 0  9997,2 56778  69.9987  24.1208 0003014 263.2133  96.8720 15.69916131 21779,6737.274,91.725,361.17,357.108,0.0
